0 COSMOS 755
1 08072U 75074A   13282.15766832  .00000085  00000-0  73876-4 0  5224
2 08072 082.9026 289.6396 0029268 080.3024 324.3623 13.73827740912437
0 COSMOS 755
1 08072U 75074A   13283.41626885  .00000108  00000-0  98437-4 0  5234
2 08072 082.9025 288.7038 0029222 076.9991 068.9268 13.73828099912606
0 COSMOS 755
1 08072U 75074A   13286.47872765  .00000086  00000-0  75845-4 0  5258
2 08072 082.9023 286.4266 0029123 068.8208 094.8397 13.73828967913025
0 COSMOS 755
1 08072U 75074A   13287.49922984  .00000068  00000-0  56103-4 0  5267
2 08072 082.9024 285.6676 0029083 066.0962 101.9080 13.73829116913165
0 COSMOS 755
1 08072U 75074A   13288.85908578  .00000047  00000-0  33517-4 0  5273
2 08072 082.9026 284.6563 0029037 062.4388 347.3366 13.73829172913358
0 COSMOS 755
1 08072U 75074A   13290.09614228  .00000042  00000-0  28830-4 0  5286
2 08072 082.9028 283.7363 0028987 059.1226 345.4272 13.73829343913529
0 COSMOS 755
1 08072U 75074A   13291.49355587  .00000063  00000-0  51304-4 0  5297
2 08072 082.9031 282.6971 0028921 055.3674 056.6039 13.73829377913719
0 COSMOS 755
1 08072U 75074A   13293.15600418  .00000086  00000-0  75614-4 0  5305
2 08072 082.9033 281.4610 0028829 050.8743 358.5870 13.73829462913949
0 COSMOS 755
1 08072U 75074A   13294.48782777  .00000073  00000-0  62095-4 0  5317
2 08072 082.9034 280.4708 0028743 047.2585 105.4120 13.73829383914126
0 COSMOS 755
1 08072U 75074A   13295.49983179  .00000072  00000-0  60519-4 0  5327
2 08072 082.9034 279.7184 0028707 044.5160 070.4946 13.73829404914260
